CTC2_L_00016016-03
1 42551U 24481LG  26037.47790509  .00000000  00000+0  00000-0 0  9994
2 42551  90.0000 180.0000 0000000   0.0000   0.0000 15.80155563    17
CTC2_L_00016016-04
1 42552U 22118VN  26037.47790509  .00000000  00000+0  00000-0 0  9990
2 42552  90.0000 180.0000 0000000   0.0000  90.0000 15.80155563    17
CTC2_L_00016017-01
1 42553U 26244TE  26037.47790509  .00000000  00000+0  00000-0 0  9995
2 42553  90.0000 192.0000 0000000   0.0000 192.0000 15.80155563    14
CTC2_L_00016017-02
1 42554U 26788TZ  26037.47790509  .00000000  00000+0  00000-0 0  9999
2 42554  90.0000 192.0000 0000000   0.0000 282.0000 15.80155563    15
CTC2_L_00016017-03
1 42555U 26652KQ  26037.47790509  .00000000  00000+0  00000-0 0  9990
2 42555  90.0000 192.0000 0000000   0.0000  12.0000 15.80155563    17
CTC2_L_00016017-04
1 42556U 25851WU  26037.47790509  .00000000  00000+0  00000-0 0  9991
2 42556  90.0000 192.0000 0000000   0.0000 102.0000 15.80155563    18
CTC2_L_00016018-01
1 42557U 26850XM  26037.47790509  .00000000  00000+0  00000-0 0  9992
2 42557  90.0000 204.0000 0000000   0.0000 204.0000 15.80155563    16
CTC2_L_00016018-02
1 42558U 25448YT  26037.47790509  .00000000  00000+0  00000-0 0  9995
2 42558  90.0000 204.0000 0000000   0.0000 294.0000 15.80155563    16
CTC2_L_00016018-03
1 42559U 22487EL  26037.47790509  .00000000  00000+0  00000-0 0  9996
2 42559  90.0000 204.0000 0000000   0.0000  24.0000 15.80155563    18
CTC2_L_00016018-04
1 42560U 22486DP  26037.47790509  .00000000  00000+0  00000-0 0  9997
2 42560  90.0000 204.0000 0000000   0.0000 114.0000 15.80155563    10
CTC2_L_00016019-01
1 42561U 24429VN  26037.47790509  .00000000  00000+0  00000-0 0  9997
2 42561  90.0000 216.0000 0000000   0.0000 216.0000 15.80155563    17
CTC2_L_00016019-02
1 42562U 25974O   26037.47790509  .00000000  00000+0  00000-0 0  9994
2 42562  90.0000 216.0000 0000000   0.0000 306.0000 15.80155563    18
CTC2_L_00016019-03
1 42563U 25480QO  26037.47790509  .00000000  00000+0  00000-0 0  9997
2 42563  90.0000 216.0000 0000000   0.0000  36.0000 15.80155563    19
CTC2_L_00016019-04
1 42564U 23962AD  26037.47790509  .00000000  00000+0  00000-0 0  9991
2 42564  90.0000 216.0000 0000000   0.0000 126.0000 15.80155563    10
CTC2_L_00016020-01
1 42565U 23724CP  26037.47790509  .00000000  00000+0  00000-0 0  9998
2 42565  90.0000 228.0000 0000000   0.0000 228.0000 15.80155563    17
CTC2_L_00016020-02
1 42566U 26843RZ  26037.47790509  .00000000  00000+0  00000-0 0  9994
2 42566  90.0000 228.0000 0000000   0.0000 318.0000 15.80155563    18
CTC2_L_00016020-03
1 42567U 26097DK  26037.47790509  .00000000  00000+0  00000-0 0  9996
2 42567  90.0000 228.0000 0000000   0.0000  48.0000 15.80155563    19
CTC2_L_00016020-04
1 42568U 24918QM  26037.47790509  .00000000  00000+0  00000-0 0  9997
2 42568  90.0000 228.0000 0000000   0.0000 138.0000 15.80155563    10
CTC2_L_00016021-01
1 42569U 26075EV  26037.47790509  .00000000  00000+0  00000-0 0  9994
2 42569  90.0000 240.0000 0000000   0.0000 240.0000 15.80155563    19
CTC2_L_00016021-02
1 42570U 22040WC  26037.47790509  .00000000  00000+0  00000-0 0  9994
2 42570  90.0000 240.0000 0000000   0.0000 330.0000 15.80155563    11
CTC2_L_00016021-03
1 42571U 23719EW  26037.47790509  .00000000  00000+0  00000-0 0  9999
2 42571  90.0000 240.0000 0000000   0.0000  60.0000 15.80155563    12
CTC2_L_00016021-04
1 42572U 22852ID  26037.47790509  .00000000  00000+0  00000-0 0  9997
2 42572  90.0000 240.0000 0000000   0.0000 150.0000 15.80155563    13
CTC2_L_00016022-01
1 42573U 26652TK  26037.47790509  .00000000  00000+0  00000-0 0  9990
2 42573  90.0000 252.0000 0000000   0.0000 252.0000 15.80155563    10
CTC2_L_00016022-02
1 42574U 24410KS  26037.47790509  .00000000  00000+0  00000-0 0  9991
2 42574  90.0000 252.0000 0000000   0.0000 342.0000 15.80155563    11
CTC2_L_00016022-03
1 42575U 22173BI  26037.47790509  .00000000  00000+0  00000-0 0  9996
2 42575  90.0000 252.0000 0000000   0.0000  72.0000 15.80155563    12
CTC2_L_00016022-04
1 42576U 24046YQ  26037.47790509  .00000000  00000+0  00000-0 0  9998
2 42576  90.0000 252.0000 0000000   0.0000 162.0000 15.80155563    13
CTC2_L_00016023-01
1 42577U 25289MS  26037.47790509  .00000000  00000+0  00000-0 0  9999
2 42577  90.0000 264.0000 0000000   0.0000 264.0000 15.80155563    10
CTC2_L_00016023-02
1 42578U 25867PT  26037.47790509  .00000000  00000+0  00000-0 0  9992
2 42578  90.0000 264.0000 0000000   0.0000 354.0000 15.80155563    11
CTC2_L_00016023-03
1 42579U 26883ZO  26037.47790509  .00000000  00000+0  00000-0 0  9992
2 42579  90.0000 264.0000 0000000   0.0000  84.0000 15.80155563    12
CTC2_L_00016023-04
1 42580U 26635RA  26037.47790509  .00000000  00000+0  00000-0 0  9999
2 42580  90.0000 264.0000 0000000   0.0000 174.0000 15.80155563    14
CTC2_L_00016024-01
1 42581U 22796LN  26037.47790509  .00000000  00000+0  00000-0 0  9994
2 42581  90.0000 276.0000 0000000   0.0000 276.0000 15.80155563    11
CTC2_L_00016024-02
1 42582U 22571OZ  26037.47790509  .00000000  00000+0  00000-0 0  9996
2 42582  90.0000 276.0000 0000000   0.0000   6.0000 15.80155563    13
CTC2_L_00016024-03
1 42583U 26316ZN  26037.47790509  .00000000  00000+0  00000-0 0  9998
2 42583  90.0000 276.0000 0000000   0.0000  96.0000 15.80155563    13
CTC2_L_00016024-04
1 42584U 25474OT  26037.47790509  .00000000  00000+0  00000-0 0  9993
2 42584  90.0000 276.0000 0000000   0.0000 186.0000 15.80155563    14
CTC2_L_00016025-01
1 42585U 26950UJ  26037.47790509  .00000000  00000+0  00000-0 0  9994
2 42585  90.0000 288.0000 0000000   0.0000 288.0000 15.80155563    11
CTC2_L_00016025-02
1 42586U 22303YC  26037.47790509  .00000000  00000+0  00000-0 0  9993
2 42586  90.0000 288.0000 0000000   0.0000  18.0000 15.80155563    13
CTC2_L_00016025-03
1 42587U 26657SX  26037.47790509  .00000000  00000+0  00000-0 0  9990
2 42587  90.0000 288.0000 0000000   0.0000 108.0000 15.80155563    14
CTC2_L_00016025-04
1 42588U 25420ON  26037.47790509  .00000000  00000+0  00000-0 0  9998
2 42588  90.0000 288.0000 0000000   0.0000 198.0000 15.80155563    14
CTC2_L_00016026-01
1 42589U 22917QM  26037.47790509  .00000000  00000+0  00000-0 0  9997
2 42589  90.0000 300.0000 0000000   0.0000 300.0000 15.80155563    15
CTC2_L_00016026-02
1 42590U 26665NK  26037.47790509  .00000000  00000+0  00000-0 0  9993
2 42590  90.0000 300.0000 0000000   0.0000  30.0000 15.80155563    17
CTC2_L_00016026-03
1 42591U 25441AG  26037.47790509  .00000000  00000+0  00000-0 0  9995
2 42591  90.0000 300.0000 0000000   0.0000 120.0000 15.80155563    18
CTC2_L_00016026-04
1 42592U 22728FS  26037.47790509  .00000000  00000+0  00000-0 0  9991
2 42592  90.0000 300.0000 0000000   0.0000 210.0000 15.80155563    19
CTC2_L_00016027-01
1 42593U 23013ZC  26037.47790509  .00000000  00000+0  00000-0 0  9990
2 42593  90.0000 312.0000 0000000   0.0000 312.0000 15.80155563    16
CTC2_L_00016027-02
1 42594U 24658LZ  26037.47790509  .00000000  00000+0  00000-0 0  9997
2 42594  90.0000 312.0000 0000000   0.0000  42.0000 15.80155563    17
CTC2_L_00016027-03
1 42595U 26878ON  26037.47790509  .00000000  00000+0  00000-0 0  9994
2 42595  90.0000 312.0000 0000000   0.0000 132.0000 15.80155563    18
CTC2_L_00016027-04
1 42596U 22562UT  26037.47790509  .00000000  00000+0  00000-0 0  9991
2 42596  90.0000 312.0000 0000000   0.0000 222.0000 15.80155563    19
CTC2_L_00016028-01
1 42597U 24543ER  26037.47790509  .00000000  00000+0  00000-0 0  9993
2 42597  90.0000 324.0000 0000000   0.0000 324.0000 15.80155563    16
CTC2_L_00016028-02
1 42598U 26745CL  26037.47790509  .00000000  00000+0  00000-0 0  9990
2 42598  90.0000 324.0000 0000000   0.0000  54.0000 15.80155563    17
CTC2_L_00016028-03
1 42599U 23509EG  26037.47790509  .00000000  00000+0  00000-0 0  9996
2 42599  90.0000 324.0000 0000000   0.0000 144.0000 15.80155563    18
CTC2_L_00016028-04
1 42600U 25002XI  26037.47790509  .00000000  00000+0  00000-0 0  9999
2 42600  90.0000 324.0000 0000000   0.0000 234.0000 15.80155563    11
CTC2_L_00016029-01
1 42601U 23388GF  26037.47790509  .00000000  00000+0  00000-0 0  9995
2 42601  90.0000 336.0000 0000000   0.0000 336.0000 15.80155563    18
CTC2_L_00016029-02
1 42602U 24596JQ  26037.47790509  .00000000  00000+0  00000-0 0  9998
2 42602  90.0000 336.0000 0000000   0.0000  66.0000 15.80155563    19
CTC2_L_00016029-03
1 42603U 25649Y   26037.47790509  .00000000  00000+0  00000-0 0  9999
2 42603  90.0000 336.0000 0000000   0.0000 156.0000 15.80155563    10
CTC2_L_00016029-04
1 42604U 24514ZG  26037.47790509  .00000000  00000+0  00000-0 0  9990
2 42604  90.0000 336.0000 0000000   0.0000 246.0000 15.80155563    11
CTC2_L_00016030-01
1 42605U 24093TD  26037.47790509  .00000000  00000+0  00000-0 0  9993
2 42605  90.0000 348.0000 0000000   0.0000 348.0000 15.80155563    18
CTC2_L_00016030-02
1 42606U 26872HX  26037.47790509  .00000000  00000+0  00000-0 0  9991
2 42606  90.0000 348.0000 0000000   0.0000  78.0000 15.80155563    19
CTC2_L_00016030-03
1 42607U 22204AF  26037.47790509  .00000000  00000+0  00000-0 0  9997
2 42607  90.0000 348.0000 0000000   0.0000 168.0000 15.80155563    10
CTC2_L_00016030-04
1 42608U 22529EQ  26037.47790509  .00000000  00000+0  00000-0 0  9998
2 42608  90.0000 348.0000 0000000   0.0000 258.0000 15.80155563    11
